OBJECT_NAME,OBJECT_ID,EPOCH,MEAN_MOTION,ECCENTRICITY,INCLINATION,RA_OF_ASC_NODE,ARG_OF_PERICENTER,MEAN_ANOMALY,EPHEMERIS_TYPE,CLASSIFICATION_TYPE,NORAD_CAT_ID,ELEMENT_SET_NO,REV_AT_EPOCH,BSTAR,MEAN_MOTION_DOT,MEAN_MOTION_DDOT
TERRA,1999-068A,2009-06-25T08:25:28.821792,14.57126713,.0001377,98.2016,251.2233,70.4716,289.6633,0,U,25994,806,50634,.27744E-4,.8E-6,0
TERRA,1999-068A,2009-06-25T16:39:53.753760,14.57126830,.0001374,98.2015,251.5613,71.5587,288.5768,0,U,25994,807,50639,.25094E-4,.68E-6,0
TERRA,1999-068A,2009-06-25T19:57:39.716352,14.57126468,.0001366,98.2016,251.6967,70.4291,289.7032,0,U,25994,808,50641,.14814E-4,.22E-6,0
TERRA,1999-068A,2009-06-26T00:54:18.718560,14.57126705,.0001382,98.2016,251.8993,69.9975,290.1375,0,U,25994,809,50644,.27578E-4,.79E-6,0
TERRA,1999-068A,2009-06-26T12:26:29.586336,14.57127220,.0001335,98.2011,252.3729,70.7105,289.4246,0,U,25994,810,50651,.37541E-4,.124E-5,0
TERRA,1999-068A,2009-06-26T17:23:08.528928,14.57127195,.0001356,98.2013,252.5759,71.4138,288.7203,0,U,25994,811,50654,.34314E-4,.109E-5,0
TERRA,1999-068A,2009-06-26T22:19:47.492256,14.57127025,.0001341,98.2010,252.7786,72.3824,287.7510,0,U,25994,812,50657,.27669E-4,.79E-6,0
TERRA,1999-068A,2009-06-27T04:55:19.449408,14.57127254,.0001313,98.2009,253.0491,74.1882,285.9473,0,U,25994,812,50661,.33026E-4,.104E-5,0
TERRA,1999-068A,2009-06-27T11:30:51.375456,14.57127225,.0001316,98.2008,253.3196,74.2546,285.8799,0,U,25994,813,50665,.26353E-4,.74E-6,0
TERRA,1999-068A,2009-06-27T19:45:16.302240,14.57126871,.0001305,98.2007,253.6577,73.6947,286.4379,0,U,25994,814,50670,.10492E-4,.2E-7,0
TERRA,1999-068A,2009-06-28T03:59:41.271360,14.57126692,.0001297,98.2006,253.9956,74.9458,285.1887,0,U,25994,815,50675,-.62756E-6,-.48E-6,0
TERRA,1999-068A,2009-06-28T12:14:06.167040,14.57127208,.0001271,98.2004,254.3339,73.9343,286.2001,0,U,25994,816,50680,.16901E-4,.31E-6,0
TERRA,1999-068A,2009-06-28T17:10:45.100992,14.57127241,.0001273,98.2005,254.5370,73.6776,286.4556,0,U,25994,817,50683,.16355E-4,.29E-6,0
TERRA,1999-068A,2009-06-28T20:28:31.081728,14.57127250,.0001303,98.2006,254.6722,74.1267,286.0067,0,U,25994,818,50685,.20411E-4,.47E-6,0
TERRA,1999-068A,2009-06-29T03:04:03.039744,14.57127453,.0001287,98.2007,254.9427,75.0126,285.1227,0,U,25994,818,50689,.27003E-4,.77E-6,0
TERRA,1999-068A,2009-06-29T11:18:27.940608,14.57127426,.0001281,98.2004,255.2808,73.9971,286.1368,0,U,25994,819,50694,.18876E-4,.4E-6,0
TERRA,1999-068A,2009-06-29T17:53:59.871840,14.57127245,.0001291,98.2007,255.5514,74.0898,286.0428,0,U,25994,820,50698,.10644E-4,.3E-7,0
TERRA,1999-068A,2009-06-29T21:11:45.865536,14.57127144,.0001297,98.2008,255.6867,73.8584,286.2747,0,U,25994,821,50700,.10142E-4,.1E-7,0
TERRA,1999-068A,2009-06-30T03:47:17.813184,14.57127436,.0001264,98.2005,255.9572,74.7546,285.3808,0,U,25994,821,50704,.1569E-4,.26E-6,0
TERRA,1999-068A,2009-06-30T10:22:49.724544,14.57127456,.0001261,98.2004,256.2277,74.6410,285.4928,0,U,25994,822,50708,.1485E-4,.22E-6,0
TERRA,1999-068A,2009-06-30T18:37:14.639232,14.57127430,.000126,98.2002,256.5657,73.0664,287.0661,0,U,25994,823,50713,.14203E-4,.19E-6,0
TERRA,1999-068A,2009-07-01T02:51:39.591936,14.57127536,.0001253,98.2002,256.9037,73.3559,286.7786,0,U,25994,824,50718,.18405E-4,.38E-6,0
TERRA,1999-068A,2009-07-01T11:06:04.473792,14.57127784,.0001238,98.2002,257.2418,73.1556,286.9779,0,U,25994,825,50723,.22846E-4,.58E-6,0
TERRA,1999-068A,2009-07-01T16:02:43.413792,14.57127718,.0001215,98.2003,257.4449,72.9101,287.2231,0,U,25994,826,50726,.12775E-4,.12E-6,0
TERRA,1999-068A,2009-07-01T20:59:22.363296,14.57127504,.0001227,98.2005,257.6478,72.2921,287.8394,0,U,25994,827,50729,.91797E-5,-.4E-7,0
TERRA,1999-068A,2009-07-02T03:34:54.328224,14.57127803,.0001191,98.2004,257.9182,71.8028,288.3315,0,U,25994,827,50733,.19293E-4,.42E-6,0
TERRA,1999-068A,2009-07-02T10:10:26.236992,14.57127809,.0001202,98.2005,258.1887,72.3065,287.8265,0,U,25994,828,50737,.1773E-4,.35E-6,0
TERRA,1999-068A,2009-07-02T13:28:12.203040,14.57127849,.0001201,98.2005,258.3239,72.2703,287.8630,0,U,25994,829,50739,.16582E-4,.3E-6,0
TERRA,1999-068A,2009-07-02T18:24:51.145632,14.57127619,.0001196,98.2004,258.5267,71.9233,288.2083,0,U,25994,830,50742,.84215E-5,-.7E-7,0
TERRA,1999-068A,2009-07-03T02:39:16.095744,14.57128002,.0001185,98.2004,258.8649,70.7681,289.3663,0,U,25994,831,50747,.25438E-4,.69E-6,0
TERRA,1999-068A,2009-07-03T10:53:40.955136,14.57128228,.0001175,98.2005,259.2030,71.4911,288.6416,0,U,25994,832,50752,.28048E-4,.81E-6,0
