1 25994U 99068A   09176.35102803  .00000080  00000-0  27744-4 0  8069
2 25994  98.2016 251.2233 0001377  70.4716 289.6633 14.57126713506340
1 25994U 99068A   09176.69437215  .00000068  00000-0  25094-4 0  8077
2 25994  98.2015 251.5613 0001374  71.5587 288.5768 14.57126830506391
1 25994U 99068A   09176.83170968  .00000022  00000-0  14814-4 0  8081
2 25994  98.2016 251.6967 0001366  70.4291 289.7032 14.57126468506413
1 25994U 99068A   09177.03771665  .00000079  00000-0  27578-4 0  8099
2 25994  98.2016 251.8993 0001382  69.9975 290.1375 14.57126705506447
1 25994U 99068A   09177.51839799  .00000124  00000-0  37541-4 0  8109
2 25994  98.2011 252.3729 0001335  70.7105 289.4246 14.57127220506517
1 25994U 99068A   09177.72440427  .00000109  00000-0  34314-4 0  8117
2 25994  98.2013 252.5759 0001356  71.4138 288.7203 14.57127195506540
1 25994U 99068A   09177.93041079  .00000079  00000-0  27669-4 0  8122
2 25994  98.2010 252.7786 0001341  72.3824 287.7510 14.57127025506570
1 25994U 99068A   09178.20508622  .00000104  00000-0  33026-4 0  8128
2 25994  98.2009 253.0491 0001313  74.1882 285.9473 14.57127254506615
1 25994U 99068A   09178.47976129  .00000074  00000-0  26353-4 0  8130
2 25994  98.2008 253.3196 0001316  74.2546 285.8799 14.57127225506652
1 25994U 99068A   09178.82310535  .00000002  00000-0  10492-4 0  8141
2 25994  98.2007 253.6577 0001305  73.6947 286.4379 14.57126871506706
1 25994U 99068A   09179.16644990 -.00000048  00000-0 -62756-6 0  8159
2 25994  98.2006 253.9956 0001297  74.9458 285.1887 14.57126692506756
1 25994U 99068A   09179.50979360  .00000031  00000-0  16901-4 0  8169
2 25994  98.2004 254.3339 0001271  73.9343 286.2001 14.57127208506808
1 25994U 99068A   09179.71579978  .00000029  00000-0  16355-4 0  8174
2 25994  98.2005 254.5370 0001273  73.6776 286.4556 14.57127241506832
1 25994U 99068A   09179.85313752  .00000047  00000-0  20411-4 0  8184
2 25994  98.2006 254.6722 0001303  74.1267 286.0067 14.57127250506855
1 25994U 99068A   09180.12781296  .00000077  00000-0  27003-4 0  8185
2 25994  98.2007 254.9427 0001287  75.0126 285.1227 14.57127453506893
1 25994U 99068A   09180.47115672  .00000040  00000-0  18876-4 0  8191
2 25994  98.2004 255.2808 0001281  73.9971 286.1368 14.57127426506949
1 25994U 99068A   09180.74583185  .00000003  00000-0  10644-4 0  8205
2 25994  98.2007 255.5514 0001291  74.0898 286.0428 14.57127245506989
1 25994U 99068A   09180.88316974  .00000001  00000-0  10142-4 0  8212
2 25994  98.2008 255.6867 0001297  73.8584 286.2747 14.57127144507005
1 25994U 99068A   09181.15784506  .00000026  00000-0  15690-4 0  8213
2 25994  98.2005 255.9572 0001264  74.7546 285.3808 14.57127436507046
1 25994U 99068A   09181.43251996  .00000022  00000-0  14850-4 0  8220
2 25994  98.2004 256.2277 0001261  74.6410 285.4928 14.57127456507087
1 25994U 99068A   09181.77586388  .00000019  00000-0  14203-4 0  8232
2 25994  98.2002 256.5657 0001260  73.0664 287.0661 14.57127430507133
1 25994U 99068A   09182.11920824  .00000038  00000-0  18405-4 0  8248
2 25994  98.2002 256.9037 0001253  73.3559 286.7786 14.57127536507183
1 25994U 99068A   09182.46255178  .00000058  00000-0  22846-4 0  8256
2 25994  98.2002 257.2418 0001238  73.1556 286.9779 14.57127784507233
1 25994U 99068A   09182.66855803  .00000012  00000-0  12775-4 0  8260
2 25994  98.2003 257.4449 0001215  72.9101 287.2231 14.57127718507265
1 25994U 99068A   09182.87456439 -.00000004  00000-0  91797-5 0  8270
2 25994  98.2005 257.6478 0001227  72.2921 287.8394 14.57127504507299
1 25994U 99068A   09183.14923991  .00000042  00000-0  19293-4 0  8274
2 25994  98.2004 257.9182 0001191  71.8028 288.3315 14.57127803507332
1 25994U 99068A   09183.42391478  .00000035  00000-0  17730-4 0  8281
2 25994  98.2005 258.1887 0001202  72.3065 287.8265 14.57127809507376
1 25994U 99068A   09183.56125235  .00000030  00000-0  16582-4 0  8292
2 25994  98.2005 258.3239 0001201  72.2703 287.8630 14.57127849507398
1 25994U 99068A   09183.76725863 -.00000007  00000-0  84215-5 0  8303
2 25994  98.2004 258.5267 0001196  71.9233 288.2083 14.57127619507423
1 25994U 99068A   09184.11060296  .00000069  00000-0  25438-4 0  8314
2 25994  98.2004 258.8649 0001185  70.7681 289.3663 14.57128002507470
1 25994U 99068A   09184.45394624  .00000081  00000-0  28048-4 0  8321
2 25994  98.2005 259.2030 0001175  71.4911 288.6416 14.57128228507527
